GPS BIIR-2  (PRN 13)    
1 24876U 97035A   25323.79796716  .00000015  00000+0  00000+0 0  9992
2 24876  55.8840 106.7663 0096546  57.0230 303.8757  2.00563518207759
GPS BIIR-4  (PRN 20)    
1 26360U 00025A   25324.68264894 -.00000086  00000+0  00000+0 0  9990
2 26360  55.0325  27.7303 0038612 239.8409 131.4016  2.00569692187096
GPS BIIR-5  (PRN 22)    
1 26407U 00040A   25324.78642275  .00000030  00000+0  00000+0 0  9991
2 26407  54.8963 223.4419 0127237 301.3944 344.3630  2.00567701185765
GPS BIIR-8  (PRN 16)    
1 27663U 03005A   25323.94811741  .00000026  00000+0  00000+0 0  9998
2 27663  54.9294 223.2849 0146474  51.4665 124.5580  2.00572216167118
GPS BIIR-11 (PRN 19)    
1 28190U 04009A   25318.00069429 -.00000061  00000+0  00000+0 0  9998
2 28190  55.0114 284.3769 0107970 167.1336 194.2094  2.00561848158634
GPS BIIR-13 (PRN 02)    
1 28474U 04045A   25324.40815005 -.00000078  00000+0  00000+0 0  9991
2 28474  55.2514 333.3045 0170176 308.3019  59.0466  2.00568593154240
GPS BIIRM-1 (PRN 17)    
1 28874U 05038A   25322.96750939 -.00000061  00000+0  00000+0 0  9993
2 28874  55.0528 281.6580 0133172 293.0534  73.6741  2.00549910147627
GPS BIIRM-2 (PRN 31)    
1 29486U 06042A   25324.33604297  .00000083  00000+0  00000+0 0  9990
2 29486  54.6910 159.6301 0107339  51.3932 126.9480  2.00555042140207
GPS BIIRM-3 (PRN 12)    
1 29601U 06052A   25324.01269861  .00000028  00000+0  00000+0 0  9998
2 29601  54.9759 222.3003 0087111  87.2073 273.8609  2.00572044139211
GPS BIIRM-4 (PRN 15)    
1 32260U 07047A   25324.31767421 -.00000022  00000+0  00000+0 0  9991
2 32260  53.9401  88.6847 0164497  84.9553 276.8901  2.00565509132622
GPS BIIRM-5 (PRN 29)    
1 32384U 07062A   25324.85955387 -.00000045  00000+0  00000+0 0  9999
2 32384  55.2015 282.5235 0032182 163.2487 358.2506  2.00576309131336
GPS BIIRM-6 (PRN 07)    
1 32711U 08012A   25323.73950944  .00000086  00000+0  00000+0 0  9993
2 32711  54.4737 158.2913 0201607 244.7031 113.2598  2.00564651129552
GPS BIIRM-8 (PRN 05)    
1 35752U 09043A   25324.22747240 -.00000084  00000+0  00000+0 0  9993
2 35752  56.0758  35.6710 0052454  82.2020 288.1581  2.00567183119175
GPS BIIF-1  (PRN 25)    
1 36585U 10022A   25324.29970368  .00000037  00000+0  00000+0 0  9990
2 36585  54.3044 216.9790 0125078  64.8115 117.0211  2.00552097113403
GPS BIIF-3  (PRN 24)    
1 38833U 12053A   25321.92261508  .00000092  00000+0  00000+0 0  9991
2 38833  53.5529 152.2552 0175002  63.6017 298.2490  2.00564848 95203
GPS BIIF-4  (PRN 27)    
1 39166U 13023A   25323.78065868 -.00000051  00000+0  00000+0 0  9992
2 39166  54.6720 277.5014 0136508  48.3721 312.7705  2.00565319 91685
GPS BIIF-5  (PRN 30)    
1 39533U 14008A   25324.27446950  .00000081  00000+0  00000+0 0  9996
2 39533  53.6270 157.8411 0078702 226.2244 133.1849  2.00573221 85498
GPS BIIF-6  (PRN 06)    
1 39741U 14026A   25324.05745924 -.00000078  00000+0  00000+0 0  9993
2 39741  56.5918 339.6590 0038473 317.6374  42.1057  2.00563094 84348
GPS BIIF-7  (PRN 09)    
1 40105U 14045A   25324.14624760 -.00000006  00000+0  00000+0 0  9995
2 40105  55.2153  96.8004 0033125 119.2962 241.0067  2.00571248 81888
GPS BIIF-8  (PRN 03)    
1 40294U 14068A   25319.53574101 -.00000101  00000+0  00000+0 0  9995
2 40294  56.8385  39.1983 0060898  69.6254 291.0526  2.00563185 80926
GPS BIIF-9  (PRN 26)    
1 40534U 15013A   25324.65188957  .00000043  00000+0  00000+0 0  9996
2 40534  53.2018 212.8050 0106024  37.9024 322.9296  2.00563908 77643
GPS BIIF-10 (PRN 08)    
1 40730U 15033A   25324.81333658 -.00000040  00000+0  00000+0 0  9992
2 40730  54.1499 275.6749 0109597  26.2766 334.2612  2.00566801 75818
GPS BIIF-11 (PRN 10)    
1 41019U 15062A   25324.37404230 -.00000080  00000+0  00000+0 0  9995
2 41019  56.8163  38.8675 0110123 229.3599 129.7184  2.00567195 73647
GPS BIIF-12 (PRN 32)    
1 41328U 16007A   25323.95751550 -.00000004  00000+0  00000+0 0  9997
2 41328  55.3929  97.7612 0091026 243.0491 115.9918  2.00561980 71649
GPS BIII-1  (PRN 04)    
1 43873U 18109A   25324.84065422  .00000004  00000+0  00000+0 0  9993
2 43873  55.5550 100.4118 0037043 194.2013 337.7823  2.00553182 50895
GPS BIII-2  (PRN 18)    
1 44506U 19056A   25324.48506028 -.00000079  00000+0  00000+0 0  9994
2 44506  55.7296 339.4367 0057696 198.0220 333.2529  2.00565800 45883
GPS BIII-3  (PRN 23)    
1 45854U 20041A   25324.56426639 -.00000080  00000+0  00000+0 0  9997
2 45854  56.5315  37.0497 0060030 202.4977 330.3845  2.00562558 39857
GPS BIII-4  (PRN 14)    
1 46826U 20078A   25316.12603230 -.00000034  00000+0  00000+0 0  9993
2 46826  54.0224 219.5836 0063912 203.4985 326.7754  2.00567032 37156
GPS BIII-5  (PRN 11)    
1 48859U 21054A   25319.11062946 -.00000086  00000+0  00000+0 0  9998
2 48859  55.2650 341.0634 0024518 231.9647 120.1900  2.00555149 32450
GPS BIII-6  (PRN 28)    
1 55268U 23009A   25324.80201354  .00000080  00000+0  00000+0 0  9995
2 55268  55.1045 156.7075 0003754 358.9310 184.6253  2.00557666 21062
GPS BIII-7  (PRN 01)    
1 62339U 24242A   25319.48673507 -.00000088  00000+0  00000+0 0  9992
2 62339  54.9314 342.8443 0011095 342.9666  39.2392  2.00567269  6978
GPS BIII-8  (PRN 21)    
1 64202U 25116A   25324.68517076 -.00000080  00000+0  00000+0 0  9992
2 64202  55.0891  39.5323 0004386 304.0978  61.8735  2.00559915  3695
